{
  "norad_id": 64090,
  "name": "2025-108D",
  "history": [
    {
      "epoch": "2026-03-28T22:01:07.814784Z",
      "apogee_km": 519.3802315560106,
      "perigee_km": 504.55011344196737,
      "latitude_deg": 2.3461096348486858e-05,
      "longitude_deg": 7.909817885042296,
      "height_km": 513.1293305684621,
      "semi_major_axis_km": 6890.102172498989,
      "eccentricity": 0.00107619,
      "inclination_deg": 97.473,
      "raan_deg": 164.5234,
      "arg_perigee_deg": 285.079,
      "mean_anomaly_deg": 74.9253,
      "mean_motion_rev_day": 15.17973776
    },
    {
      "epoch": "2026-03-29T04:20:49.462656Z",
      "apogee_km": 519.370315433539,
      "perigee_km": 504.53457484026967,
      "latitude_deg": -2.4259809869122403e-05,
      "longitude_deg": -87.01320002785876,
      "height_km": 513.2573516250408,
      "semi_major_axis_km": 6890.089445136904,
      "eccentricity": 0.0010766,
      "inclination_deg": 97.4729,
      "raan_deg": 164.7838,
      "arg_perigee_deg": 283.9505,
      "mean_anomaly_deg": 76.0531,
      "mean_motion_rev_day": 15.17977982
    },
    {
      "epoch": "2026-03-30T04:04:40.071072Z",
      "apogee_km": 519.3328286421183,
      "perigee_km": 504.46688511971206,
      "latitude_deg": -1.7569900387890176e-05,
      "longitude_deg": -82.97215491537158,
      "height_km": 513.7029409683913,
      "semi_major_axis_km": 6890.036856880915,
      "eccentricity": 0.0010788,
      "inclination_deg": 97.4729,
      "raan_deg": 165.7603,
      "arg_perigee_deg": 279.9966,
      "mean_anomaly_deg": 80.005,
      "mean_motion_rev_day": 15.17995361
    },
    {
      "epoch": "2026-03-30T05:39:35.419104Z",
      "apogee_km": 519.3324989515004,
      "perigee_km": 504.4639407477707,
      "latitude_deg": 1.2387542011479156e-05,
      "longitude_deg": -106.70264766723629,
      "height_km": 513.7388629711368,
      "semi_major_axis_km": 6890.035219849636,
      "eccentricity": 0.00107899,
      "inclination_deg": 97.4729,
      "raan_deg": 165.8254,
      "arg_perigee_deg": 279.7011,
      "mean_anomaly_deg": 80.3004,
      "mean_motion_rev_day": 15.17995902
    },
    {
      "epoch": "2026-03-30T15:09:07.375968Z",
      "apogee_km": 519.3134734447085,
      "perigee_km": 504.43807366685724,
      "latitude_deg": -1.1367212276928514e-05,
      "longitude_deg": 110.91507106614597,
      "height_km": 513.9161006403752,
      "semi_major_axis_km": 6890.012773555783,
      "eccentricity": 0.00107949,
      "inclination_deg": 97.4729,
      "raan_deg": 166.2161,
      "arg_perigee_deg": 278.1399,
      "mean_anomaly_deg": 81.861,
      "mean_motion_rev_day": 15.1800332
    }
  ]
}